"Zip","Branch","Address","City","Webpage","Phone","Wi-Fi","Computers"
"20853","Aspen Hill","4407 Aspen Hill Road 25","Rockville 2","http://montgomerycountymd.gov/Library/branches/aspenhill.html","240-773-9410","y","21"
"20879","Gaithersburg","18330 Montgomery Village Avenue","Gaithersburg","http://montgomerycountymd.gov/Library/branches/gaithersburg.html","240-773-9490","y","44"
"20837","Maggie Nightingale","19633 Fisher Avenue","Poolseville","http://montgomerycountymd.gov/Library/branches/poolesville.html","240-773-9550","y","5"
"20854","Potomac","10101 Glenolden Drive","Potomac","http://montgomerycountymd.gov/Library/branches/Potomac.html","240-777-0690","y","11"
"20904","White Oak","11701 New Hampshire Avenue","Silver Spring","http://montgomerycountymd.gov/Library/branches/WhiteOak.html","240-773-9555","y","21"
"20815","Chevy Chase","8005 Connecticut Avenue","Chevy Chase","http://montgomerycountymd.gov/Library/branches/chevychase.html","240-773-9590","y","11"
"20874","Germantown","19840 Century Blvd.","Germantown","http://montgomerycountymd.gov/Library/branches/Germantown.html","240-777-0110","y","37"
"20901","Long Branch","8800 Garland Avenue","Silver Spring","http://montgomerycountymd.gov/Library/branches/LongBranch.html","240-777-0910","y","17"
"20832","Olney","3500 Olney-Laytonsville Road","Olney","http://montgomerycountymd.gov/Library/branches/Olney.html","240-773-9545","y","16"
"20814","Connie Morella","7400 Arlington Road","Bethesda","http://montgomerycountymd.gov/Library/branches/bethesda.html","240-777-0970","y","18"
"20910","Silver Spring","900 Wayne Avenue","Silver Spring","http://montgomerycountymd.gov/Library/branches/SilverSpring.html","240-773-9420","y","43"
"20895","Noyes","10237 Carroll Place","Kensington","http://montgomerycountymd.gov/Library/branches/noyes.html","240-773-9570","y",""
"20895","Kensington Park","4201 Knowles Avenue","Kensington","http://montgomerycountymd.gov/Library/branches/KensingtonPark.html","240-773-9515","y","14"
"20872","Damascus","9701 Main Street","Damascus","http://montgomerycountymd.gov/Library/branches/damascus.html","240-773-9444","y","9"
"20851","Twinbrook","202 Meadow Hall Drive","Rockville","http://montgomerycountymd.gov/Library/branches/Twinbrook.html","240-777-0240","y","15"
"20850","Rockville","21 Maryland Avenue","Rockville","http://montgomerycountymd.gov/Library/branches/rockville.html","240-777-0140","y","37"
"20866","Marilyn Praisner","14910 Old Columbia Pike","Burtonsville","http://montgomerycountymd.gov/Library/branches/Praisner.html","240-773-9460","y","18"
"20816","Little Falls","5501 Massachusetts Avenue","Bethesda","http://montgomerycountymd.gov/Library/branches/LittleFalls.html","240-773-9520","y","10"
"20902","Wheaton","11701 Georgia Avenue","Wheaton","http://montgomerycountymd.gov/Library/branches/Wheaton.html","240-777-0678","y","30"
"20817","Davis","6400 Democracy Blvd.","Bethesda","http://montgomerycountymd.gov/Library/branches/davis.html","240-777-0922","y","14"
"20878","Quince Orchard","15831 Quince Orchard Road","Gaithersburg","http://montgomerycountymd.gov/Library/branches/QuinceOrchard.html","240-777-0200","y","15"
"eedab90d-2b82-46ce-9c77-fe42102a876b","chedy bououn","Rudolfa iela 5","Riga","www.instagram.com","22495715","y","23"